CARTOSAT-3              
1 44804U 19081A   23362.59425712  .00005260  00000+0  25340-3 0  9999
2 44804  97.5599  55.5709 0012789  58.7639 301.4846 15.19106382226587
FLOCK 4P-7              
1 44816U 19081N   23362.18419368  .00337318  00000+0  20427-2 0  9999
2 44816  97.3257  77.5562 0005695 297.8154  62.2535 15.76615602227992
FLOCK 4P-5              
1 44818U 19081Q   23362.16888823  .00165166  00000+0  17140-2 0  9993
2 44818  97.3320  76.0710 0005865 349.7666  10.3473 15.64097815227899
JILIN-1 GAOFEN 2B       
1 44836U 19086A   23362.58250322  .00008824  00000+0  46469-3 0  9995
2 44836  97.6029  62.6589 0007331 235.6875 124.3664 15.15831527223782
TIANYI-16 (TY-16)       
1 44840U 19087C   23362.55810428  .00095099  00000+0  10856-2 0  9997
2 44840  97.5064 180.2554 0005420  58.1426 302.0358 15.61877371226372
TIANQI-4A               
1 44842U 19087E   23362.53445866  .00089905  00000+0  11217-2 0  9998
2 44842  97.4975 178.3885 0005940  56.2329 303.9493 15.59562363226387
TIANQI-4B               
1 44843U 19087F   23362.48535683  .00035215  00000+0  67724-3 0  9990
2 44843  97.5214 176.4083 0008980  87.4655 272.7623 15.47800852226135
TYVAK-0092              
1 44852U 19089A   23362.33983244  .00019336  00000+0  84569-3 0  9998
2 44852  36.9591 336.2972 0009255 208.8048 151.2191 15.21317057222458
TYVAK-0129              
1 44853U 19089B   23362.30688733  .00031722  00000+0  13325-2 0  9995
2 44853  36.9603 336.0438 0010029 205.2432 154.7827 15.22554182222566
DUCHIFAT-3              
1 44854U 19089C   23362.37940252  .00011662  00000+0  69431-3 0  9991
2 44854  36.9613   7.1380 0007198 136.4892 223.6422 15.10652470222235
ANGELS                  
1 44876U 19092D   23362.48260639  .00007325  00000+0  30499-3 0  9998
2 44876  97.4725 186.1841 0009771 198.1575 161.9314 15.23996085223183
OPS-SAT                 
1 44878U 19092F   23362.47969621  .00042826  00000+0  80226-3 0  9994
2 44878  97.4591 195.3881 0006814 153.5293 206.6307 15.48535835223705
TIANQIN 1 (CAS-6)       
1 44879U 19093A   23362.53509910  .00003623  00000+0  42440-3 0  9992
2 44879  97.8528  79.3261 0014447 153.3973 206.7986 14.85571913217699
ETRSS-1                 
1 44880U 19093B   23362.45968001  .00004061  00000+0  47358-3 0  9995
2 44880  97.8534  79.3364 0014666 155.2977 204.8944 14.85680401217674
TIANYAN 01              
1 44881U 19093C   23362.57476927  .00001602  00000+0  20274-3 0  9996
2 44881  97.8466  77.6209 0015029 158.8348 201.3490 14.83118459217601
TIANYAN 02              
1 44882U 19093D   23362.53479584  .00005639  00000+0  62533-3 0  9993
2 44882  97.8601  81.3179 0015131 153.2284 206.9717 14.87584809217752
CBERS 4A                
1 44883U 19093E   23362.55259651  .00002044  00000+0  26672-3 0  9998
2 44883  97.8489  77.2936 0001437 181.7369 178.3839 14.81595490217575
WEILAI 1R               
1 44884U 19093F   23362.44600324  .00005400  00000+0  60688-3 0  9998
2 44884  97.8527  80.4658 0013079 156.0952 204.0874 14.87073881217762
YUHENG                  
1 44885U 19093G   23362.51652663  .00006011  00000+0  66177-3 0  9998
2 44885  97.8560  81.6472 0013709 157.0553 203.1278 14.87865822217824
SHUNTIAN                
1 44886U 19093H   23362.58509845  .00004048  00000+0  46521-3 0  9998
2 44886  97.8605  82.0655 0014626 163.8898 196.2785 14.86285259217823
2019-093L               
1 44889U 19093L   23362.44485136  .00003882  00000+0  46142-3 0  9996
2 44889  97.8424  76.7885 0015257 149.2145 210.9968 14.84916484217516
ELEKTRO-L 3             
1 44903U 19095A   23362.55750712 -.00000088  00000+0  00000+0 0  9997
2 44903   0.0628 172.3048 0001163 102.2936  98.8780  1.00272426 14668
GONETS-M 14             
1 44905U 19096A   23362.55702703  .00000042  00000+0  23380-3 0  9996
2 44905  82.5236 283.5857 0013606 325.8767  34.1437 12.42863347181677
GONETS-M 15             
1 44906U 19096B   23362.50322326  .00000060  00000+0  36482-3 0  9998
2 44906  82.5257 283.9297 0016065 347.9417  12.1276 12.42905609181633
GONETS-M 16             
1 44907U 19096C   23362.53057228  .00000038  00000+0  20539-3 0  9999
2 44907  82.5201 283.2705 0012509  27.7654 332.4091 12.42900739181626
RS-44 & BREEZE-KM R/B   
1 44909U 19096E   23362.58261008  .00000039  00000+0  10423-3 0  9991
2 44909  82.5205 218.7707 0218422  92.4748 270.1376 12.79725019187022
JILIN-1 KUANFU 01       
1 45016U 20003A   23362.56036094  .00006239  00000+0  35788-3 0  9993
2 45016  97.6025  71.2089 0004518 315.7863  44.3007 15.12914300219113
XINGYUN-2 01            
1 45602U 20028A   23362.54695280  .00003196  00000+0  23262-3 0  9990
2 45602  97.4512   4.1435 0013136  61.7899 298.4652 15.04415039198925
XINGYUN-2 02            
1 45603U 20028B   23362.59889954  .00002815  00000+0  20547-3 0  9999
2 45603  97.5194  12.4112 0013993 116.6559 243.6102 15.04405513198930
HAIYANG-1D              
1 45721U 20036A   23362.57428889  .00000350  00000+0  14082-3 0  9992
2 45721  98.5740 299.3454 0001702 237.6337 122.4683 14.34185436185741
M2 PATHFINDER           
1 45727U 20037E   23362.46185474  .00003027  00000+0  27758-3 0  9995
2 45727  97.7635 175.1092 0011461 343.8171  16.2682 14.95594686190269
GAOFEN DUOMO (GFDM)     
1 45856U 20042A   23362.53420149  .00001598  00000+0  23438-3 0  9995
2 45856  97.8899  72.8207 0013965 121.5188 238.7389 14.76853454187931
BY70-2                  
1 45857U 20042B   23362.58005882  .00038591  00000+0  28921-2 0  9998
2 45857  97.9247  84.5376 0006531  71.7490 288.4444 15.02547581188598
ZINYUAN-3               
1 45939U 20051A   23362.57178068  .00008317  00000+0  37341-3 0  9995
2 45939  97.3844  77.4247 0010421 234.2901 125.7366 15.21377151190268
TIANQI-10               
1 45941U 20051C   23362.59458945  .00050604  00000+0  74271-3 0  9994
2 45941  97.4116  98.0811 0006600 142.5054 217.6662 15.55343013191521
Q-SAT                   
1 46026U 20054B   23362.57151333  .00052798  00000+0  81316-3 0  9995
2 46026  97.3545  87.6717 0007903 179.3686 180.7579 15.53998769189577
GLOBAL-8                
1 46089U 20055BQ  23362.42577259  .00080369  00000+0  75424-3 0  9996
2 46089  52.9875  44.5611 0007034  18.8434 341.2839 15.66473883197433
TIANTUO 5               
1 46234U 20058C   23362.61509407  .00008402  00000+0  26908-3 0  9993
2 46234  97.3277  56.8469 0012015 272.7276  87.2590 15.32563331186453
TYVAK-0172              
1 46267U 20059C   23362.53065043  .00010124  00000+0  82471-3 0  9995
2 46267  97.8412 198.4720 0004306  85.5922 274.5793 14.99692562180989
ION-MK01                
1 46274U 20061C   23362.61511079  .00010056  00000+0  39820-3 0  9994
2 46274  97.3258  64.8124 0004688 348.9310  11.1824 15.25612619183780
UPMSAT-2                
1 46276U 20061E   23362.17901530  .00012798  00000+0  47008-3 0  9994
2 46276  97.3237  66.0165 0002083  56.4352 303.7086 15.28052233183864
NEMO-HD                 
1 46277U 20061F   23362.57702923  .00006735  00000+0  28628-3 0  9995
2 46277  97.3234  64.4269 0002511  57.0223 303.1255 15.23357044183796
SIMBA                   
1 46279U 20061H   23362.15822275  .00039409  00000+0  11575-2 0  9990
2 46279  97.3780  68.0196 0003338  97.5359 262.6264 15.35021216183375
TRISAT                  
1 46280U 20061J   23362.18783544  .00033364  00000+0  10627-2 0  9991
2 46280  97.3679  66.8259 0003326  97.5877 262.5743 15.32480920183348
PICASSO-BEL             
1 46281U 20061K   23362.17316037  .00082558  00000+0  15893-2 0  9999
2 46281  97.3746  71.6479 0002155  81.5920 278.5574 15.47594923183640
DIDO 3                  
1 46284U 20061N   23362.58200208  .00017944  00000+0  71450-3 0  9998
2 46284  97.3758  65.2336 0003859 103.8778 256.2890 15.25291455183215
FLOCK 4V-14             
1 46286U 20061Q   23362.18817410  .00021670  00000+0  66967-3 0  9993
2 46286  97.3809  70.1561 0004015  81.7270 278.4427 15.33533259183521
AMICALSAT               
1 46287U 20061R   23362.14780706  .00021176  00000+0  80108-3 0  9991
2 46287  97.3760  65.5863 0002935 109.7836 250.3719 15.26967695183237
3CAT-5A                 
1 46292U 20061W   23362.11379928  .00008272  00000+0  40659-3 0  9993
2 46292  97.3756  62.2201 0004516  92.8746 267.3005 15.18279381182994
3CAT-5B                 
1 46293U 20061X   23362.12408029  .00008669  00000+0  42420-3 0  9998
2 46293  97.3759  62.4821 0004484  89.2851 270.8897 15.18422256182987
OSM-1 CICERO            
1 46294U 20061Y   23362.14873157  .00015185  00000+0  62607-3 0  9999
2 46294  97.3770  65.2944 0003973  83.2968 276.8722 15.24156908183195
TYVAK-0171              
1 46295U 20061Z   23362.18565123  .00215917  00000+0  21899-2 0  9997
2 46295  97.3800  76.2460 0003457 347.6153  12.5021 15.64531488183815
FLOCK 4V-10             
1 46296U 20061AA  23362.18520307  .00020841  00000+0  64589-3 0  9997
2 46296  97.3811  70.3871 0002443  89.9015 270.2507 15.33455439183499
FLOCK 4V-13             
1 46297U 20061AB  23362.18272420  .00019875  00000+0  62329-3 0  9993
2 46297  97.3804  70.3765 0001602  69.7346 290.4069 15.33088895183476
TTU100                  
1 46312U 20061AS  23362.53803434  .00037734  00000+0  10481-2 0  9990
2 46312  97.3820  71.0196 0002647  39.9460 320.1979 15.36784054183568
KEPLER-2 (TARS)         
1 46319U 20061AZ  23362.19906205  .00021115  00000+0  74878-3 0  9996
2 46319  97.3789  67.9847 0002344  38.8722 321.2686 15.29100647183399
NAPA-1                  
1 46320U 20061BA  23362.57392381  .00010632  00000+0  50260-3 0  9995
2 46320  97.3802  64.6379 0003399  41.8591 318.2903 15.19567309183209
FLOCK 4V-2              
1 46321U 20061BB  23362.19197721  .00228963  00000+0  20392-2 0  9995
2 46321  97.3650  76.6771 0001823 312.7628  47.3479 15.67755754183834
JILIN-1 GAOFEN 3B       
1 46454U 20065A   23362.55834810  .00011280  00000+0  51193-3 0  9999
2 46454  97.3683  45.9178 0013412  99.2119 261.0635 15.20885028181302
